{
    "links": {
        "self": "http://www.neowsapp.com/rest/v1/neo/54054680?api_key=iIulBulltgU6a56xZRHN4H3l9WmuAYTsLGpBGhQ2"
    },
    "id": "54054680",
    "neo_reference_id": "54054680",
    "name": "(2020 SO5)",
    "designation": "2020 SO5",
    "nasa_jpl_url": "http://ssd.jpl.nasa.gov/sbdb.cgi?sstr=54054680",
    "absolute_magnitude_h": 26.048,
    "estimated_diameter": {
        "kilometers": {
            "estimated_diameter_min": 0.016404197,
            "estimated_diameter_max": 0.0366808996
        },
        "meters": {
            "estimated_diameter_min": 16.4041970175,
            "estimated_diameter_max": 36.6808996475
        },
        "miles": {
            "estimated_diameter_min": 0.0101930923,
            "estimated_diameter_max": 0.0227924473
        },
        "feet": {
            "estimated_diameter_min": 53.8195457431,
            "estimated_diameter_max": 120.3441627996
        }
    },
    "is_potentially_hazardous_asteroid": false,
    "close_approach_data": [
        {
            "close_approach_date": "2020-09-21",
            "close_approach_date_full": "2020-Sep-21 11:40",
            "epoch_date_close_approach": 1600688400000,
            "relative_velocity": {
                "kilometers_per_second": "9.2511945438",
                "kilometers_per_hour": "33304.3003576954",
                "miles_per_hour": "20693.9970750358"
            },
            "miss_distance": {
                "astronomical": "0.0265105682",
                "lunar": "10.3126110298",
                "kilometers": "3965924.535209734",
                "miles": "2464311.2345489692"
            },
            "orbiting_body": "Earth"
        }
    ],
    "orbital_data": {
        "orbit_id": "4",
        "orbit_determination_date": "2020-10-09 08:12:37",
        "first_observation_date": "2020-09-25",
        "last_observation_date": "2020-10-09",
        "data_arc_in_days": 14,
        "observations_used": 28,
        "orbit_uncertainty": "8",
        "minimum_orbit_intersection": ".0110907",
        "jupiter_tisserand_invariant": "3.783",
        "epoch_osculation": "2459120.5",
        "eccentricity": ".4918920003927518",
        "semi_major_axis": "1.906427927424978",
        "inclination": ".7460436468050373",
        "ascending_node_longitude": "58.3759288531475",
        "orbital_period": "961.4551143855831",
        "perihelion_distance": ".9686712805992979",
        "perihelion_argument": "267.6996831348271",
        "aphelion_distance": "2.844184574250659",
        "perihelion_time": "2459088.185442798750",
        "mean_anomaly": "12.0996190236964",
        "mean_motion": ".3744324561943358",
        "equinox": "J2000",
        "orbit_class": {
            "orbit_class_type": "APO",
            "orbit_class_description": "Near-Earth asteroid orbits which cross the Earth’s orbit similar to that of 1862 Apollo",
            "orbit_class_range": "a (semi-major axis) > 1.0 AU; q (perihelion) < 1.017 AU"
        }
    },
    "is_sentry_object": false
}